{
  "norad_id": 61068,
  "name": "STARLINK-32385",
  "history": [
    {
      "epoch": "2026-03-28T11:34:51.290112Z",
      "apogee_km": 476.1340444351199,
      "perigee_km": 474.3344862082722,
      "latitude_deg": 1.8751772463800374e-05,
      "longitude_deg": 4.2937581705300065,
      "height_km": 476.3742768004822,
      "semi_major_axis_km": 6853.371265321696,
      "eccentricity": 0.00013129,
      "inclination_deg": 53.1644,
      "raan_deg": 3.9098,
      "arg_perigee_deg": 105.5668,
      "mean_anomaly_deg": 254.5478,
      "mean_motion_rev_day": 15.30193571
    },
    {
      "epoch": "2026-03-29T03:15:23.803488Z",
      "apogee_km": 476.00766282399127,
      "perigee_km": 474.49443474282,
      "latitude_deg": 2.9841367334602075e-05,
      "longitude_deg": 125.48211585155696,
      "height_km": 476.3047313024932,
      "semi_major_axis_km": 6853.388048783405,
      "eccentricity": 0.0001104,
      "inclination_deg": 53.1636,
      "raan_deg": 0.8774,
      "arg_perigee_deg": 101.8194,
      "mean_anomaly_deg": 258.2931,
      "mean_motion_rev_day": 15.3018795
    },
    {
      "epoch": "2026-03-30T02:46:12.002016Z",
      "apogee_km": 475.9521546527476,
      "perigee_km": 474.5705095489966,
      "latitude_deg": 6.717909751519467e-06,
      "longitude_deg": 127.2684114472421,
      "height_km": 475.91894051134,
      "semi_major_axis_km": 6853.398332100872,
      "eccentricity": 0.0001008,
      "inclination_deg": 53.1612,
      "raan_deg": 356.3302,
      "arg_perigee_deg": 69.5796,
      "mean_anomaly_deg": 290.5313,
      "mean_motion_rev_day": 15.30184506
    }
  ]
}